{"type": "FeatureCollection", "features": [ {"type": "Feature", "properties": {"norad_id": 34875, "name": "COSMOS 2251 DEB", "group": "cosmos-2251-debris", "lat": 8.65293142374964, "lon": 154.70085223711524, "alt_km": 731.2690086474822, "timestamp": "2025-12-15T22:44:29.325645+00:00", "meta": {"OBJECT_NAME": "COSMOS 2251 DEB", "OBJECT_ID": "1993-036ACN", "EPOCH": "2025-12-14T22:33:41.164992", "MEAN_MOTION": 14.48933772, "ECCENTRICITY": 0.00161632, "INCLINATION": 74.0438, "RA_OF_ASC_NODE": 154.0924, "ARG_OF_PERICENTER": 277.5949, "MEAN_ANOMALY": 238.1777, "EPHEMERIS_TYPE": 0, "CLASSIFICATION_TYPE": "U", "NORAD_CAT_ID": 34875, "ELEMENT_SET_NO": 999, "REV_AT_EPOCH": 87787, "BSTAR": 0.00042314776, "MEAN_MOTION_DOT": 1.578e-05, "MEAN_MOTION_DDOT": 0}, "tle": {"line1": "1 34875U 93036ACN 25348.94005978  .00001578  00000+0  42315-3 0  9990", "line2": "2 34875  74.0438 154.0924 0016163 277.5949 238.1777 14.48933772877870"}}, "geometry": {"type": "Point", "coordinates": [154.70085223711524, 8.65293142374964]}}, {"type": "Feature", "properties": {"norad_id": 34878, "name": "COSMOS 2251 DEB", "group": "cosmos-2251-debris", "lat": 7.197802486005999, "lon": 44.31641893291752, "alt_km": 783.7047880993778, "timestamp": "2025-12-15T22:44:29.325655+00:00", "meta": {"OBJECT_NAME": "COSMOS 2251 DEB", "OBJECT_ID": "1993-036ACR", "EPOCH": "2025-12-14T03:58:57.121824", "MEAN_MOTION": 13.44193143, "ECCENTRICITY": 0.04354176, "INCLINATION": 73.965, "RA_OF_ASC_NODE": 45.0605, "ARG_OF_PERICENTER": 28.3042, "MEAN_ANOMALY": 2.4735, "EPHEMERIS_TYPE": 0, "CLASSIFICATION_TYPE": "U", "NORAD_CAT_ID": 34878, "ELEMENT_SET_NO": 999, "REV_AT_EPOCH": 81292, "BSTAR": 0.00074055202, "MEAN_MOTION_DOT": 7.4e-06, "MEAN_MOTION_DDOT": 0}, "tle": {"line1": "1 34878U 93036ACR 25348.16593891  .00000740  00000+0  74055-3 0  9999", "line2": "2 34878  73.9650  45.0605 0435417  28.3042   2.4735 13.44193143812921"}}, "geometry": {"type": "Point", "coordinates": [44.31641893291752, 7.197802486005999]}}, {"type": "Feature", "properties": {"norad_id": 34882, "name": "COSMOS 2251 DEB", "group": "cosmos-2251-debris", "lat": 71.6109634898704, "lon": -19.911096358327235, "alt_km": 703.8090876701835, "timestamp": "2025-12-15T22:44:29.325666+00:00", "meta": {"OBJECT_NAME": "COSMOS 2251 DEB", "OBJECT_ID": "1993-036ACV", "EPOCH": "2025-12-12T15:26:33.087264", "MEAN_MOTION": 14.61597611, "ECCENTRICITY": 0.00828094, "INCLINATION": 74.0462, "RA_OF_ASC_NODE": 225.7751, "ARG_OF_PERICENTER": 352.7324, "MEAN_ANOMALY": 7.2634, "EPHEMERIS_TYPE": 0, "CLASSIFICATION_TYPE": "U", "NORAD_CAT_ID": 34882, "ELEMENT_SET_NO": 999, "REV_AT_EPOCH": 88523, "BSTAR": 0.00026902724, "MEAN_MOTION_DOT": 1.371e-05, "MEAN_MOTION_DDOT": 0}, "tle": {"line1": "1 34882U 93036ACV 25346.64343851  .00001371  00000+0  26903-3 0  9994", "line2": "2 34882  74.0462 225.7751 0082809 352.7324   7.2634 14.61597611885231"}}, "geometry": {"type": "Point", "coordinates": [-19.911096358327235, 71.6109634898704]}}, {"type": "Feature", "properties": {"norad_id": 34883, "name": "COSMOS 2251 DEB", "group": "cosmos-2251-debris", "lat": 29.07274428602486, "lon": 65.79532666404049, "alt_km": 776.4613463344904, "timestamp": "2025-12-15T22:44:29.325676+00:00", "meta": {"OBJECT_NAME": "COSMOS 2251 DEB", "OBJECT_ID": "1993-036ACW", "EPOCH": "2025-12-15T04:24:21.236832", "MEAN_MOTION": 14.5158624, "ECCENTRICITY": 0.00948621, "INCLINATION": 74.2, "RA_OF_ASC_NODE": 58.1613, "ARG_OF_PERICENTER": 242.7291, "MEAN_ANOMALY": 116.4185, "EPHEMERIS_TYPE": 0, "CLASSIFICATION_TYPE": "U", "NORAD_CAT_ID": 34883, "ELEMENT_SET_NO": 999, "REV_AT_EPOCH": 86475, "BSTAR": 0.0022470146, "MEAN_MOTION_DOT": 9.525e-05, "MEAN_MOTION_DDOT": 0}, "tle": {"line1": "1 34883U 93036ACW 25349.18357913  .00009525  00000+0  22470-2 0  9994", "line2": "2 34883  74.2000  58.1613 0094862 242.7291 116.4185 14.51586240864753"}}, "geometry": {"type": "Point", "coordinates": [65.79532666404049, 29.07274428602486]}}, {"type": "Feature", "properties": {"norad_id": 34884, "name": "COSMOS 2251 DEB", "group": "cosmos-2251-debris", "lat": 46.57701885042734, "lon": 67.9425875264507, "alt_km": 591.2284139078483, "timestamp": "2025-12-15T22:44:29.325686+00:00", "meta": {"OBJECT_NAME": "COSMOS 2251 DEB", "OBJECT_ID": "1993-036ACX", "EPOCH": "2025-12-15T06:43:20.345376", "MEAN_MOTION": 14.90202093, "ECCENTRICITY": 0.0002384, "INCLINATION": 74.018, "RA_OF_ASC_NODE": 51.6519, "ARG_OF_PERICENTER": 67.3595, "MEAN_ANOMALY": 2.5116, "EPHEMERIS_TYPE": 0, "CLASSIFICATION_TYPE": "U", "NORAD_CAT_ID": 34884, "ELEMENT_SET_NO": 999, "REV_AT_EPOCH": 87843, "BSTAR": 0.0015147358, "MEAN_MOTION_DOT": 0.00014679, "MEAN_MOTION_DDOT": 0}, "tle": {"line1": "1 34884U 93036ACX 25349.28009659  .00014679  00000+0  15147-2 0  9996", "line2": "2 34884  74.0180  51.6519 0002384  67.3595   2.5116 14.90202093878433"}}, "geometry": {"type": "Point", "coordinates": [67.9425875264507, 46.57701885042734]}}, {"type": "Feature", "properties": {"norad_id": 34885, "name": "COSMOS 2251 DEB", "group": "cosmos-2251-debris", "lat": -27.98385151109046, "lon": 5.734813002552868, "alt_km": 719.6475301924875, "timestamp": "2025-12-15T22:44:29.325696+00:00", "meta": {"OBJECT_NAME": "COSMOS 2251 DEB", "OBJECT_ID": "1993-036ACY", "EPOCH": "2025-12-14T16:20:13.916832", "MEAN_MOTION": 14.51514954, "ECCENTRICITY": 0.00151741, "INCLINATION": 74.0303, "RA_OF_ASC_NODE": 179.3674, "ARG_OF_PERICENTER": 264.8034, "MEAN_ANOMALY": 167.2878, "EPHEMERIS_TYPE": 0, "CLASSIFICATION_TYPE": "U", "NORAD_CAT_ID": 34885, "ELEMENT_SET_NO": 999, "REV_AT_EPOCH": 87507, "BSTAR": 0.00065849049, "MEAN_MOTION_DOT": 2.61e-05, "MEAN_MOTION_DDOT": 0}, "tle": {"line1": "1 34885U 93036ACY 25348.68071663  .00002610  00000+0  65849-3 0  9991", "line2": "2 34885  74.0303 179.3674 0015174 264.8034 167.2878 14.51514954875074"}}, "geometry": {"type": "Point", "coordinates": [5.734813002552868, -27.98385151109046]}}, {"type": "Feature", "properties": {"norad_id": 34886, "name": "COSMOS 2251 DEB", "group": "cosmos-2251-debris", "lat": -39.364634087289815, "lon": 7.698032905263785, "alt_km": 469.6706120977624, "timestamp": "2025-12-15T22:44:29.325707+00:00", "meta": {"OBJECT_NAME": "COSMOS 2251 DEB", "OBJECT_ID": "1993-036ACZ", "EPOCH": "2025-12-13T21:25:05.379168", "MEAN_MOTION": 15.38859949, "ECCENTRICITY": 0.00306549, "INCLINATION": 73.9501, "RA_OF_ASC_NODE": 178.4925, "ARG_OF_PERICENTER": 1.8054, "MEAN_ANOMALY": 358.3257, "EPHEMERIS_TYPE": 0, "CLASSIFICATION_TYPE": "U", "NORAD_CAT_ID": 34886, "ELEMENT_SET_NO": 999, "REV_AT_EPOCH": 63016, "BSTAR": 0.0017695785, "MEAN_MOTION_DOT": 0.00069737, "MEAN_MOTION_DDOT": 0}, "tle": {"line1": "1 34886U 93036ACZ 25347.89242337  .00069737  00000+0  17696-2 0  9991", "line2": "2 34886  73.9501 178.4925 0030654   1.8054 358.3257 15.38859949630168"}}, "geometry": {"type": "Point", "coordinates": [7.698032905263785, -39.364634087289815]}}, {"type": "Feature", "properties": {"norad_id": 34907, "name": "COSMOS 2251 DEB", "group": "cosmos-2251-debris", "lat": -41.16801966645284, "lon": -124.04284480067173, "alt_km": 439.45440825425794, "timestamp": "2025-12-15T22:44:29.325717+00:00", "meta": {"OBJECT_NAME": "COSMOS 2251 DEB", "OBJECT_ID": "1993-036ADC", "EPOCH": "2025-12-15T03:08:27.494592", "MEAN_MOTION": 15.45801338, "ECCENTRICITY": 0.00202571, "INCLINATION": 73.97, "RA_OF_ASC_NODE": 43.1829, "ARG_OF_PERICENTER": 337.9656, "MEAN_ANOMALY": 22.0681, "EPHEMERIS_TYPE": 0, "CLASSIFICATION_TYPE": "U", "NORAD_CAT_ID": 34907, "ELEMENT_SET_NO": 999, "REV_AT_EPOCH": 88010, "BSTAR": 0.0046562373, "MEAN_MOTION_DOT": 0.00234249, "MEAN_MOTION_DDOT": 0}, "tle": {"line1": "1 34907U 93036ADC 25349.13087378  .00234249  00000+0  46562-2 0  9992", "line2": "2 34907  73.9700  43.1829 0020257 337.9656  22.0681 15.45801338880107"}}, "geometry": {"type": "Point", "coordinates": [-124.04284480067173, -41.16801966645284]}}, {"type": "Feature", "properties": {"norad_id": 34908, "name": "COSMOS 2251 DEB", "group": "cosmos-2251-debris", "lat": 65.91168475255238, "lon": 158.02393862325494, "alt_km": 752.9514092367372, "timestamp": "2025-12-15T22:44:29.325728+00:00", "meta": {"OBJECT_NAME": "COSMOS 2251 DEB", "OBJECT_ID": "1993-036ADD", "EPOCH": "2025-12-15T08:58:46.793280", "MEAN_MOTION": 14.37406702, "ECCENTRICITY": 0.00401573, "INCLINATION": 74.0593, "RA_OF_ASC_NODE": 18.8158, "ARG_OF_PERICENTER": 34.059, "MEAN_ANOMALY": 347.7513, "EPHEMERIS_TYPE": 0, "CLASSIFICATION_TYPE": "U", "NORAD_CAT_ID": 34908, "ELEMENT_SET_NO": 999, "REV_AT_EPOCH": 87317, "BSTAR": 0.00043548863, "MEAN_MOTION_DOT": 1.288e-05, "MEAN_MOTION_DDOT": 0}, "tle": {"line1": "1 34908U 93036ADD 25349.37415270  .00001288  00000+0  43549-3 0  9993", "line2": "2 34908  74.0593  18.8158 0040157  34.0590 347.7513 14.37406702873173"}}, "geometry": {"type": "Point", "coordinates": [158.02393862325494, 65.91168475255238]}}, {"type": "Feature", "properties": {"norad_id": 34909, "name": "COSMOS 2251 DEB", "group": "cosmos-2251-debris", "lat": -10.947519025140917, "lon": 67.08714048523133, "alt_km": 687.3857662328273, "timestamp": "2025-12-15T22:44:29.325738+00:00", "meta": {"OBJECT_NAME": "COSMOS 2251 DEB", "OBJECT_ID": "1993-036ADE", "EPOCH": "2025-12-14T15:55:30.641376", "MEAN_MOTION": 14.77856453, "ECCENTRICITY": 0.00843726, "INCLINATION": 74.0146, "RA_OF_ASC_NODE": 72.7889, "ARG_OF_PERICENTER": 208.1452, "MEAN_ANOMALY": 151.5151, "EPHEMERIS_TYPE": 0, "CLASSIFICATION_TYPE": "U", "NORAD_CAT_ID": 34909, "ELEMENT_SET_NO": 999, "REV_AT_EPOCH": 66880, "BSTAR": 0.00052421635, "MEAN_MOTION_DOT": 3.965e-05, "MEAN_MOTION_DDOT": 0}, "tle": {"line1": "1 34909U 93036ADE 25348.66354909  .00003965  00000+0  52422-3 0  9990", "line2": "2 34909  74.0146  72.7889 0084372 208.1452 151.5151 14.77856453668803"}}, "geometry": {"type": "Point", "coordinates": [67.08714048523133, -10.947519025140917]}}]}